NORAD_CAT_ID,OBJECT_NAME,OBJECT_TYPE,EPOCH,MEAN_MOTION,ECCENTRICITY,INCLINATION,RA_OF_ASC_NODE,ARG_OF_PERICENTER,MEAN_ANOMALY,BSTAR,MEAN_MOTION_DOT,MEAN_MOTION_DDOT,TLE_LINE0,TLE_LINE1,TLE_LINE2,SEMIMAJOR_AXIS,PERIOD,APOGEE,PERIGEE,DECAYED
49175.0,STARLINK-3087,PAYLOAD,2021-10-29 06:00:00,15.69748374,0.000372,70.0002,359.9452,294.9025,190.8245,-1.9314e-05,-2.517e-05,0.0,0 STARLINK-3087,1 49175U 21082AX  21302.25001157 -.00002517  00000-0 -19314-4 0  9997,2 49175  70.0002 359.9452 0003720 294.9025 190.8245 15.69748374  7186,6737.754,91.734,362.125,357.112,0.0
49175.0,STARLINK-3087,PAYLOAD,2021-10-29 14:00:01,15.69756619,0.0004039,70.001,359.0164,292.948,276.2063,-0.00015814,-0.00019056,0.0,0 STARLINK-3087,1 49175U 21082AX  21302.58335648 -.00019056  00000-0 -15814-3 0  9994,2 49175  70.0010 359.0164 0004039 292.9480 276.2063 15.69756619  3660,6737.73,91.734,362.317,356.874,0.0
49175.0,STARLINK-3087,PAYLOAD,2021-10-29 22:00:01,15.69751709,0.0003993,70.0001,358.0713,282.7466,9.2961,-6.7068e-05,-8.213e-05,0.0,0 STARLINK-3087,1 49175U 21082AX  21302.91668981 -.00008213  00000-0 -67068-4 0  9992,2 49175  70.0001 358.0713 0003993 282.7466   9.2961 15.69751709  3664,6737.744000000002,91.734,362.3,356.9190000000001,0.0
49175.0,STARLINK-3087,PAYLOAD,2021-10-30 06:00:00,15.69759387,0.0003622,70.0011,357.1429,290.4396,84.8882,-0.00020673,-0.0002483,0.0,0 STARLINK-3087,1 49175U 21082AX  21303.25001157 -.00024830  00000-0 -20673-3 0  9999,2 49175  70.0011 357.1429 0003622 290.4396  84.8882 15.69759387  7346,6737.722,91.734,362.028,357.147,0.0
49175.0,STARLINK-3087,PAYLOAD,2021-10-30 14:00:01,15.69717982,0.0003741,70.0007,356.2059,295.9658,162.5511,0.00055181,0.000661,0.0,0 STARLINK-3087,1 49175U 21082AX  21303.58335648  .00066100  00000-0  55181-3 0  9996,2 49175  70.0007 356.2059 0003741 295.9658 162.5511 15.69717982  3684,6737.840999999999,91.736,362.227,357.185,0.0
49175.0,STARLINK-3087,PAYLOAD,2021-10-30 22:00:00,15.69781164,0.0003731,70.0007,355.2689,291.1329,250.4566,-0.00040364,-0.00048189,0.0,0 STARLINK-3087,1 49175U 21082AX  21303.91667824 -.00048189  00000-0 -40364-3 0  9993,2 49175  70.0007 355.2689 0003731 291.1329 250.4566 15.69781164  7442,6737.66,91.733,362.039,357.011,0.0
49175.0,STARLINK-3087,PAYLOAD,2021-10-31 06:00:00,15.69454496,0.0003586,70.0004,354.326,293.9842,330.7545,0.0023729,0.00289528,0.0,0 STARLINK-3087,1 49175U 21082AX  21304.25001157  .00289528  00000-0  23729-2 0  9999,2 49175  70.0004 354.3260 0003586 293.9842 330.7545 15.69454496  7503,6738.595,91.752,362.876,358.0440000000001,0.0
49175.0,STARLINK-3087,PAYLOAD,2021-10-31 14:00:01,15.69741539,0.0003999,70.0008,353.3951,295.1726,52.624,0.00060104,0.00072142,0.0,0 STARLINK-3087,1 49175U 21082AX  21304.58334491  .00072142  00000-0  60104-3 0  9996,2 49175  70.0008 353.3951 0003999 295.1726  52.6240 15.69741539  7550,6737.773,91.735,362.333,356.944,0.0
49175.0,STARLINK-3087,PAYLOAD,2021-10-31 22:00:01,15.69781109,0.0003926,70.0009,352.4584,290.3628,140.6545,-0.00024863,-0.0002983,0.0,0 STARLINK-3087,1 49175U 21082AX  21304.91668981 -.00029830  00000-0 -24863-3 0  9997,2 49175  70.0009 352.4584 0003926 290.3628 140.6545 15.69781109  7600,6737.66,91.733,362.17,356.88,0.0
49175.0,STARLINK-3087,PAYLOAD,2021-11-01 14:00:01,15.69726116,0.0004086,70.0005,350.5847,294.9371,302.3397,0.00018726,0.00022183,0.0,0 STARLINK-3087,1 49175U 21082AX  21305.58334491  .00022183  00000-0  18726-3 0  9990,2 49175  70.0005 350.5847 0004086 294.9371 302.3397 15.69726116  3683,6737.818,91.736,362.436,356.93,0.0
49175.0,STARLINK-3087,PAYLOAD,2021-11-01 22:00:00,15.69731645,0.000381,70.0003,349.6476,290.8926,29.4996,-2.7792e-05,-3.527e-05,0.0,0 STARLINK-3087,1 49175U 21082AX  21305.91667824 -.00003527  00000-0 -27792-4 0  9993,2 49175  70.0003 349.6476 0003810 290.8926  29.4996 15.69731645  7761,6737.802,91.735,362.234,357.1,0.0
49175.0,STARLINK-3087,PAYLOAD,2021-11-02 14:00:01,15.69698862,0.0003794,70.0002,347.7736,296.8995,189.6763,0.0005381,0.00064389,0.0,0 STARLINK-3087,1 49175U 21082AX  21306.58334491  .00064389  00000-0  53810-3 0  9998,2 49175  70.0002 347.7736 0003794 296.8995 189.6763 15.69698862  3682,6737.896,91.737,362.317,357.204,0.0
49175.0,STARLINK-3087,PAYLOAD,2021-11-02 22:00:00,15.69711555,0.0003647,70.0003,346.8368,292.7297,276.9591,0.00069154,0.00083037,0.0,0 STARLINK-3087,1 49175U 21082AX  21306.91667824  .00083037  00000-0  69154-3 0  9993,2 49175  70.0003 346.8368 0003647 292.7297 276.9591 15.69711555  3674,6737.859,91.737,362.182,357.267,0.0
49175.0,STARLINK-3087,PAYLOAD,2021-11-03 06:00:00,15.69798531,0.0003762,70.0004,345.9001,292.0291,0.7676,-0.00020667,-0.00024863,0.0,0 STARLINK-3087,1 49175U 21082AX  21307.25001157 -.00024863  00000-0 -20667-3 0  9992,2 49175  70.0004 345.9001 0003762 292.0291   0.7676 15.69798531  7977,6737.61,91.732,362.01,356.941,0.0
49175.0,STARLINK-3087,PAYLOAD,2021-11-03 14:00:01,15.69771388,0.0004033,69.9997,344.963,295.3531,80.6103,-0.00035203,-0.00042071,0.0,0 STARLINK-3087,1 49175U 21082AX  21307.58334491 -.00042071  00000-0 -35203-3 0  9991,2 49175  69.9997 344.9630 0004033 295.3531  80.6103 15.69771388  3695,6737.688,91.733,362.27,356.836,0.0
49175.0,STARLINK-3087,PAYLOAD,2021-11-03 20:00:01,15.69730677,0.0003937,69.9996,344.2601,291.5614,56.8235,-2.2761e-05,-2.927e-05,0.0,0 STARLINK-3087,1 49175U 21082AX  21307.83335648 -.00002927  00000-0 -22761-4 0  9996,2 49175  69.9996 344.2601 0003937 291.5614  56.8235 15.69730677  8060,6737.805,91.735,362.322,357.017,0.0
49175.0,STARLINK-3087,PAYLOAD,2021-11-03 22:00:00,15.69716983,0.0003923,69.9996,344.0259,289.886,169.2147,0.00020963,0.00024856,0.0,0 STARLINK-3087,1 49175U 21082AX  21307.91667824  .00024856  00000-0  20963-3 0  9993,2 49175  69.9996 344.0259 0003923 289.8860 169.2147 15.69716983  3672,6737.844,91.736,362.352,357.066,0.0
49175.0,STARLINK-3087,PAYLOAD,2021-11-04 14:00:01,15.69719505,0.0003894,69.9992,342.1517,296.573,328.7359,0.00052521,0.00062885,0.0,0 STARLINK-3087,1 49175U 21082AX  21308.58334491  .00062885  00000-0  52521-3 0  9997,2 49175  69.9992 342.1517 0003894 296.5730 328.7359 15.69719505  3672,6737.837,91.736,362.325,357.07800000000015,0.0
49175.0,STARLINK-3087,PAYLOAD,2021-11-04 22:00:00,15.69754259,0.0003669,69.9993,341.2147,291.6783,56.8019,0.0011444,0.00138718,0.0,0 STARLINK-3087,1 49175U 21082AX  21308.91667824  .00138718  00000-0  11444-2 0  9990,2 49175  69.9993 341.2147 0003669 291.6783  56.8019 15.69754259  8230,6737.736999999999,91.734,362.074,357.13,0.0
49175.0,STARLINK-3087,PAYLOAD,2021-11-05 14:00:01,15.69822235,0.0004051,69.999,339.3405,294.5735,220.3098,-0.0012686,-0.00149468,0.0,0 STARLINK-3087,1 49175U 21082AX  21309.58334491 -.00149468  00000-0 -12686-2 0  9990,2 49175  69.9990 339.3405 0004051 294.5735 220.3098 15.69822235  8333,6737.543000000002,91.73,362.137,356.67800000000005,0.0
49175.0,STARLINK-3087,PAYLOAD,2021-11-05 22:00:00,15.69686371,0.000394,69.999,338.403,289.1038,308.9443,-0.0014302,-0.00167182,0.0,0 STARLINK-3087,1 49175U 21082AX  21309.91667824 -.00167182  00000-0 -14302-2 0  9996,2 49175  69.9990 338.4030 0003940 289.1038 308.9443 15.69686371  3723,6737.931,91.738,362.451,357.142,0.0
49175.0,STARLINK-3087,PAYLOAD,2021-11-06 04:00:01,15.69534323,0.0004025,69.9991,337.7005,289.6731,280.6764,0.00025531,0.00030109,0.0,0 STARLINK-3087,1 49175U 21082AX  21310.16668981  .00030109  00000-0  25531-3 0  9993,2 49175  69.9991 337.7005 0004025 289.6731 280.6764 15.69534323  8432,6738.3669999999975,91.747,362.944,357.519,0.0
49175.0,STARLINK-3087,PAYLOAD,2021-11-06 08:00:03,15.6949491,0.0004002,69.9989,337.2322,292.3575,139.504,0.0015255999999999,0.00184037,0.0,0 STARLINK-3087,1 49175U 21082AX  21310.33336806  .00184037  00000-0  15256-2 0  9992,2 49175  69.9989 337.2322 0004002 292.3575 139.5040 15.69494910  3709,6738.479,91.749,363.041,357.648,0.0
49175.0,STARLINK-3087,PAYLOAD,2021-11-06 12:00:00,15.69537958,0.0004062,69.999,336.7637,295.3809,357.7852,0.0020085,0.00244562,0.0,0 STARLINK-3087,1 49175U 21082AX  21310.50001157  .00244562  00000-0  20085-2 0  9995,2 49175  69.9990 336.7637 0004062 295.3809 357.7852 15.69537958  8488,6738.356,91.747,362.958,357.4840000000001,0.0
49175.0,STARLINK-3087,PAYLOAD,2021-11-06 16:00:00,15.6964984,0.000406,69.9987,336.2951,293.7981,220.8136,0.0010515,0.00126718,0.0,0 STARLINK-3087,1 49175U 21082AX  21310.66667824  .00126718  00000-0  10515-2 0  9990,2 49175  69.9987 336.2951 0004060 293.7981 220.8136 15.69649840  3652,6738.036,91.74,362.637,357.165,0.0
49175.0,STARLINK-3087,PAYLOAD,2021-11-06 20:00:01,15.69699306,0.0004026,69.9991,335.8267,290.4882,85.7058,0.00081915,0.00098539,0.0,0 STARLINK-3087,1 49175U 21082AX  21310.83335648  .00098539  00000-0  81915-3 0  9997,2 49175  69.9991 335.8267 0004026 290.4882  85.7058 15.69699306  8533,6737.894,91.737,362.472,357.047,0.0
49175.0,STARLINK-3087,PAYLOAD,2021-11-07 14:00:01,15.69800469,0.0004335,69.9991,333.7181,292.625,0.5792,0.00020911,0.00024882,0.0,0 STARLINK-3087,1 49175U 21082AX  21311.58334491  .00024882  00000-0  20911-3 0  9994,2 49175  69.9991 333.7181 0004335 292.6250   0.5792 15.69800469  8658,6737.605,91.731,362.391,356.5490000000001,0.0
49175.0,STARLINK-3087,PAYLOAD,2021-11-07 22:00:01,15.69786297,0.0004109,69.9991,332.7809,287.8391,88.6265,0.00036245,0.00043352,0.0,0 STARLINK-3087,1 49175U 21082AX  21311.91668981  .00043352  00000-0  36245-3 0  9995,2 49175  69.9991 332.7809 0004109 287.8391  88.6265 15.69786297  3665,6737.645,91.732,362.279,356.742,0.0
49175.0,STARLINK-3087,PAYLOAD,2021-11-08 06:00:02,15.69794481,0.0004096999999999,69.9994,331.8429,290.4411,169.2266,-0.00038085,-0.00045524,0.0,0 STARLINK-3087,1 49175U 21082AX  21312.25002315 -.00045524  00000-0 -38085-3 0  9995,2 49175  69.9994 331.8429 0004097 290.4411 169.2266 15.69794481  8751,6737.621999999999,91.732,362.247,356.727,0.0
